[{"OBJECT_NAME":"DMSP 5D-3 F18 (USA 210)","OBJECT_ID":"2009-057A","EPOCH":"2026-03-05T06:10:10.547328","MEAN_MOTION":14.1483268,"ECCENTRICITY":0.00108773,"INCLINATION":98.8958,"RA_OF_ASC_NODE":45.3014,"ARG_OF_PERICENTER":180.8537,"MEAN_ANOMALY":179.262,"EPHEMERIS_TYPE":0,"CLASSIFICATION_TYPE":"U","NORAD_CAT_ID":35951,"ELEMENT_SET_NO":999,"REV_AT_EPOCH":84489,"BSTAR":0.00020914831,"MEAN_MOTION_DOT":3.59e-6,"MEAN_MOTION_DDOT":0},{"OBJECT_NAME":"PROBA-2","OBJECT_ID":"2009-059B","EPOCH":"2026-03-05T05:59:17.552544","MEAN_MOTION":14.54787654,"ECCENTRICITY":0.00121572,"INCLINATION":98.2427,"RA_OF_ASC_NODE":249.0447,"ARG_OF_PERICENTER":239.0187,"MEAN_ANOMALY":120.9817,"EPHEMERIS_TYPE":0,"CLASSIFICATION_TYPE":"U","NORAD_CAT_ID":36037,"ELEMENT_SET_NO":999,"REV_AT_EPOCH":86641,"BSTAR":0.00011432362,"MEAN_MOTION_DOT":4.45e-6,"MEAN_MOTION_DDOT":0},{"OBJECT_NAME":"YAOGAN-7","OBJECT_ID":"2009-069A","EPOCH":"2026-03-05T05:36:31.022496","MEAN_MOTION":14.77884141,"ECCENTRICITY":0.00251149,"INCLINATION":98.0219,"RA_OF_ASC_NODE":310.6667,"ARG_OF_PERICENTER":17.577,"MEAN_ANOMALY":342.6303,"EPHEMERIS_TYPE":0,"CLASSIFICATION_TYPE":"U","NORAD_CAT_ID":36110,"ELEMENT_SET_NO":999,"REV_AT_EPOCH":87427,"BSTAR":0.00015850724,"MEAN_MOTION_DOT":1.093e-5,"MEAN_MOTION_DDOT":0},{"OBJECT_NAME":"XIWANG-1 (HOPE-1)","OBJECT_ID":"2009-072B","EPOCH":"2026-03-05T06:38:55.127616","MEAN_MOTION":13.16435956,"ECCENTRICITY":0.00080391,"INCLINATION":100.391,"RA_OF_ASC_NODE":19.8258,"ARG_OF_PERICENTER":108.9289,"MEAN_ANOMALY":251.2696,"EPHEMERIS_TYPE":0,"CLASSIFICATION_TYPE":"U","NORAD_CAT_ID":36122,"ELEMENT_SET_NO":999,"REV_AT_EPOCH":77933,"BSTAR":-0.00033030398,"MEAN_MOTION_DOT":-1.7e-6,"MEAN_MOTION_DDOT":0},{"OBJECT_NAME":"RADUGA-1M 2","OBJECT_ID":"2010-002A","EPOCH":"2026-03-05T04:21:38.795328","MEAN_MOTION":0.98964095,"ECCENTRICITY":0.00084965,"INCLINATION":3.3499,"RA_OF_ASC_NODE":80.1652,"ARG_OF_PERICENTER":249.7019,"MEAN_ANOMALY":335.7284,"EPHEMERIS_TYPE":0,"CLASSIFICATION_TYPE":"U","NORAD_CAT_ID":36358,"ELEMENT_SET_NO":999,"REV_AT_EPOCH":4899,"BSTAR":0,"MEAN_MOTION_DOT":4.2e-7,"MEAN_MOTION_DDOT":0},{"OBJECT_NAME":"COSMOS 2463","OBJECT_ID":"2010-017A","EPOCH":"2026-03-05T06:05:49.279776","MEAN_MOTION":13.7165749,"ECCENTRICITY":0.00373472,"INCLINATION":82.9637,"RA_OF_ASC_NODE":326.0894,"ARG_OF_PERICENTER":59.4661,"MEAN_ANOMALY":55.6131,"EPHEMERIS_TYPE":0,"CLASSIFICATION_TYPE":"U","NORAD_CAT_ID":36519,"ELEMENT_SET_NO":999,"REV_AT_EPOCH":79368,"BSTAR":7.2600485e-5,"MEAN_MOTION_DOT":8.1e-7,"MEAN_MOTION_DDOT":0},{"OBJECT_NAME":"CARTOSAT-2B","OBJECT_ID":"2010-035A","EPOCH":"2026-03-05T07:55:51.603168","MEAN_MOTION":14.78821911,"ECCENTRICITY":0.0012288,"INCLINATION":97.8558,"RA_OF_ASC_NODE":115.7046,"ARG_OF_PERICENTER":162.8995,"MEAN_ANOMALY":197.2633,"EPHEMERIS_TYPE":0,"CLASSIFICATION_TYPE":"U","NORAD_CAT_ID":36795,"ELEMENT_SET_NO":999,"REV_AT_EPOCH":84450,"BSTAR":0.00010924595,"MEAN_MOTION_DOT":7.53e-6,"MEAN_MOTION_DDOT":0},{"OBJECT_NAME":"AISSAT 1","OBJECT_ID":"2010-035C","EPOCH":"2026-03-05T05:08:16.661472","MEAN_MOTION":14.96862508,"ECCENTRICITY":0.0010203,"INCLINATION":98.1036,"RA_OF_ASC_NODE":319.7705,"ARG_OF_PERICENTER":46.3587,"MEAN_ANOMALY":313.8478,"EPHEMERIS_TYPE":0,"CLASSIFICATION_TYPE":"U","NORAD_CAT_ID":36797,"ELEMENT_SET_NO":999,"REV_AT_EPOCH":84866,"BSTAR":0.00027503208,"MEAN_MOTION_DOT":3.094e-5,"MEAN_MOTION_DDOT":0},{"OBJECT_NAME":"TISAT 1","OBJECT_ID":"2010-035E","EPOCH":"2026-03-05T00:58:14.371104","MEAN_MOTION":15.27357031,"ECCENTRICITY":5.42e-5,"INCLINATION":98.065,"RA_OF_ASC_NODE":1.7537,"ARG_OF_PERICENTER":169.476,"MEAN_ANOMALY":190.6489,"EPHEMERIS_TYPE":0,"CLASSIFICATION_TYPE":"U","NORAD_CAT_ID":36799,"ELEMENT_SET_NO":999,"REV_AT_EPOCH":85178,"BSTAR":0.0010243309,"MEAN_MOTION_DOT":0.00027432,"MEAN_MOTION_DDOT":0},{"OBJECT_NAME":"YAOGAN-10","OBJECT_ID":"2010-038A","EPOCH":"2026-03-05T07:59:12.744096","MEAN_MOTION":14.8499197,"ECCENTRICITY":0.00016048,"INCLINATION":97.9081,"RA_OF_ASC_NODE":88.5378,"ARG_OF_PERICENTER":91.2098,"MEAN_ANOMALY":359.4857,"EPHEMERIS_TYPE":0,"CLASSIFICATION_TYPE":"U","NORAD_CAT_ID":36834,"ELEMENT_SET_NO":999,"REV_AT_EPOCH":84179,"BSTAR":0.00016829957,"MEAN_MOTION_DOT":1.381e-5,"MEAN_MOTION_DDOT":0},{"OBJECT_NAME":"SHIJIAN-6 04B (SJ-6 04B)","OBJECT_ID":"2010-051B","EPOCH":"2026-03-05T07:18:21.210624","MEAN_MOTION":14.99109269,"ECCENTRICITY":0.00087888,"INCLINATION":97.8746,"RA_OF_ASC_NODE":68.6469,"ARG_OF_PERICENTER":312.3616,"MEAN_ANOMALY":47.6861,"EPHEMERIS_TYPE":0,"CLASSIFICATION_TYPE":"U","NORAD_CAT_ID":37180,"ELEMENT_SET_NO":999,"REV_AT_EPOCH":84011,"BSTAR":0.00018647618,"MEAN_MOTION_DOT":2.206e-5,"MEAN_MOTION_DDOT":0},{"OBJECT_NAME":"FENGYUN 3B","OBJECT_ID":"2010-059A","EPOCH":"2026-03-05T08:18:11.128896","MEAN_MOTION":14.14816298,"ECCENTRICITY":0.00230048,"INCLINATION":98.9772,"RA_OF_ASC_NODE":109.8553,"ARG_OF_PERICENTER":119.9403,"MEAN_ANOMALY":298.5268,"EPHEMERIS_TYPE":0,"CLASSIFICATION_TYPE":"U","NORAD_CAT_ID":37214,"ELEMENT_SET_NO":999,"REV_AT_EPOCH":79274,"BSTAR":0.00017732324,"MEAN_MOTION_DOT":2.98e-6,"MEAN_MOTION_DDOT":0},{"OBJECT_NAME":"COSMO-SKYMED 4","OBJECT_ID":"2010-060A","EPOCH":"2026-03-05T06:36:00.177984","MEAN_MOTION":14.82156631,"ECCENTRICITY":0.00014081,"INCLINATION":97.8853,"RA_OF_ASC_NODE":249.3752,"ARG_OF_PERICENTER":85.3799,"MEAN_ANOMALY":274.7575,"EPHEMERIS_TYPE":0,"CLASSIFICATION_TYPE":"U","NORAD_CAT_ID":37216,"ELEMENT_SET_NO":999,"REV_AT_EPOCH":82917,"BSTAR":0.00014752964,"MEAN_MOTION_DOT":1.122e-5,"MEAN_MOTION_DDOT":0},{"OBJECT_NAME":"O/OREOS (USA 219)","OBJECT_ID":"2010-062C","EPOCH":"2026-03-05T02:37:24.275136","MEAN_MOTION":14.93250813,"ECCENTRICITY":0.00169013,"INCLINATION":71.9722,"RA_OF_ASC_NODE":316.0103,"ARG_OF_PERICENTER":264.3981,"MEAN_ANOMALY":95.5262,"EPHEMERIS_TYPE":0,"CLASSIFICATION_TYPE":"U","NORAD_CAT_ID":37224,"ELEMENT_SET_NO":999,"REV_AT_EPOCH":10110,"BSTAR":0.00031434353,"MEAN_MOTION_DOT":3.237e-5,"MEAN_MOTION_DDOT":0},{"OBJECT_NAME":"ELEKTRO-L 1 (GOMS 2)","OBJECT_ID":"2011-001A","EPOCH":"2026-03-03T22:18:04.303008","MEAN_MOTION":1.00174519,"ECCENTRICITY":0.0003277,"INCLINATION":9.4482,"RA_OF_ASC_NODE":55.5616,"ARG_OF_PERICENTER":9.9871,"MEAN_ANOMALY":1.0142,"EPHEMERIS_TYPE":0,"CLASSIFICATION_TYPE":"U","NORAD_CAT_ID":37344,"ELEMENT_SET_NO":999,"REV_AT_EPOCH":5543,"BSTAR":0,"MEAN_MOTION_DOT":-2.73e-6,"MEAN_MOTION_DDOT":0},{"OBJECT_NAME":"RESOURCESAT-2","OBJECT_ID":"2011-015A","EPOCH":"2026-03-05T04:58:33.684384","MEAN_MOTION":14.214948,"ECCENTRICITY":0.00062636,"INCLINATION":98.7732,"RA_OF_ASC_NODE":132.3229,"ARG_OF_PERICENTER":150.6617,"MEAN_ANOMALY":209.4913,"EPHEMERIS_TYPE":0,"CLASSIFICATION_TYPE":"U","NORAD_CAT_ID":37387,"ELEMENT_SET_NO":999,"REV_AT_EPOCH":77140,"BSTAR":-7.6447942e-5,"MEAN_MOTION_DOT":-2.12e-6,"MEAN_MOTION_DDOT":0}]
