DMSP 5D-3 F18 (USA 210) 
1 35951U 09057A   26064.25706652  .00000359  00000+0  20915-3 0  9991
2 35951  98.8958  45.3014 0010877 180.8537 179.2620 14.14832680844891
PROBA-2                 
1 36037U 09059B   26064.24950871  .00000445  00000+0  11432-3 0  9992
2 36037  98.2427 249.0447 0012157 239.0187 120.9817 14.54787654866413
YAOGAN-7                
1 36110U 09069A   26064.23369239  .00001093  00000+0  15851-3 0  9995
2 36110  98.0219 310.6667 0025114  17.5770 342.6303 14.77884141874275
XIWANG-1 (HOPE-1)       
1 36122U 09072B   26064.27702694 -.00000170  00000+0 -33030-3 0  9998
2 36122 100.3910  19.8258 0008039 108.9289 251.2696 13.16435956779333
RADUGA-1M 2             
1 36358U 10002A   26064.18169902  .00000042  00000+0  00000+0 0  9996
2 36358   3.3499  80.1652 0008496 249.7019 335.7284  0.98964095 48998
COSMOS 2463             
1 36519U 10017A   26064.25404259  .00000081  00000+0  72600-4 0  9999
2 36519  82.9637 326.0894 0037347  59.4661  55.6131 13.71657490793685
CARTOSAT-2B             
1 36795U 10035A   26064.33045837  .00000753  00000+0  10925-3 0  9994
2 36795  97.8558 115.7046 0012288 162.8995 197.2633 14.78821911844503
AISSAT 1                
1 36797U 10035C   26064.21408173  .00003094  00000+0  27503-3 0  9990
2 36797  98.1036 319.7705 0010203  46.3587 313.8478 14.96862508848667
TISAT 1                 
1 36799U 10035E   26064.04044411  .00027432  00000+0  10243-2 0  9998
2 36799  98.0650   1.7537 0000542 169.4760 190.6489 15.27357031851781
YAOGAN-10               
1 36834U 10038A   26064.33278639  .00001381  00000+0  16830-3 0  9998
2 36834  97.9081  88.5378 0001604  91.2098 359.4857 14.84991970841791
SHIJIAN-6 04B (SJ-6 04B)
1 37180U 10051B   26064.30441216  .00002206  00000+0  18648-3 0  9994
2 37180  97.8746  68.6469 0008788 312.3616  47.6861 14.99109269840110
FENGYUN 3B              
1 37214U 10059A   26064.34596214  .00000298  00000+0  17732-3 0  9995
2 37214  98.9772 109.8553 0023004 119.9403 298.5268 14.14816298792741
COSMO-SKYMED 4          
1 37216U 10060A   26064.27500206  .00001122  00000+0  14753-3 0  9994
2 37216  97.8853 249.3752 0001408  85.3799 274.7575 14.82156631829178
O/OREOS (USA 219)       
1 37224U 10062C   26064.10930874  .00003237  00000+0  31434-3 0  9999
2 37224  71.9722 316.0103 0016901 264.3981  95.5262 14.93250813101100
ELEKTRO-L 1 (GOMS 2)    
1 37344U 11001A   26062.92921647 -.00000273  00000+0  00000+0 0  9991
2 37344   9.4482  55.5616 0003277   9.9871   1.0142  1.00174519 55434
RESOURCESAT-2           
1 37387U 11015A   26064.20733431 -.00000212  00000+0 -76448-4 0  9996
2 37387  98.7732 132.3229 0006263 150.6617 209.4913 14.21494800771401
